[{"OBJECT_NAME":"JILIN-1 08","OBJECT_ID":"2018-008F","EPOCH":"2026-03-09T22:37:53.184288","MEAN_MOTION":15.32205976,"ECCENTRICITY":0.00081321,"INCLINATION":97.1902,"RA_OF_ASC_NODE":90.9961,"ARG_OF_PERICENTER":76.0646,"MEAN_ANOMALY":284.15,"EPHEMERIS_TYPE":0,"CLASSIFICATION_TYPE":"U","NORAD_CAT_ID":43160,"ELEMENT_SET_NO":999,"REV_AT_EPOCH":44974,"BSTAR":0.00036689195,"MEAN_MOTION_DOT":0.00011349,"MEAN_MOTION_DDOT":0},{"OBJECT_NAME":"STARLINK-1191","OBJECT_ID":"2020-012AW","EPOCH":"2026-03-09T05:05:39.649344","MEAN_MOTION":15.30216929,"ECCENTRICITY":0.00013757,"INCLINATION":53.1617,"RA_OF_ASC_NODE":1.0406,"ARG_OF_PERICENTER":90.2006,"MEAN_ANOMALY":269.9152,"EPHEMERIS_TYPE":0,"CLASSIFICATION_TYPE":"U","NORAD_CAT_ID":45222,"ELEMENT_SET_NO":999,"REV_AT_EPOCH":33544,"BSTAR":0.00035499959,"MEAN_MOTION_DOT":0.00010175,"MEAN_MOTION_DDOT":0}]
